SPAWAR-CAL-R            
1 43776U 18099U   26067.65115975  .00003570  00000+0  25336-3 0  9990
2 43776  97.4524 111.5817 0019701 348.9052  11.1737 15.05212097396878
STARLINK-4571           
1 53688U 22105AS  26068.65238105 -.00000770  00000+0 -55410-4 0  9996
2 53688  97.6023 310.1668 0001573 117.2615 242.8770 15.01261297193235
